[{"OBJECT_NAME":"STARLINK-33693","OBJECT_ID":"2025-065L","EPOCH":"2026-03-19T22:00:31.290912","MEAN_MOTION":15.27641664,"ECCENTRICITY":0.0001461,"INCLINATION":43.0008,"RA_OF_ASC_NODE":49.3472,"ARG_OF_PERICENTER":246.538,"MEAN_ANOMALY":113.5318,"EPHEMERIS_TYPE":0,"CLASSIFICATION_TYPE":"U","NORAD_CAT_ID":63409,"ELEMENT_SET_NO":999,"REV_AT_EPOCH":5440,"BSTAR":0.0013622,"MEAN_MOTION_DOT":0.00037485,"MEAN_MOTION_DDOT":0},{"OBJECT_NAME":"STARLINK-33677","OBJECT_ID":"2025-065M","EPOCH":"2026-03-19T23:23:36.450816","MEAN_MOTION":15.27595777,"ECCENTRICITY":0.0001005,"INCLINATION":43.0013,"RA_OF_ASC_NODE":48.9177,"ARG_OF_PERICENTER":222.3474,"MEAN_ANOMALY":137.7301,"EPHEMERIS_TYPE":0,"CLASSIFICATION_TYPE":"U","NORAD_CAT_ID":63410,"ELEMENT_SET_NO":999,"REV_AT_EPOCH":5441,"BSTAR":0.00073498,"MEAN_MOTION_DOT":0.00020028,"MEAN_MOTION_DDOT":0},{"OBJECT_NAME":"STARLINK-33647","OBJECT_ID":"2025-065N","EPOCH":"2026-03-19T22:58:22.478304","MEAN_MOTION":15.27592323,"ECCENTRICITY":4.3e-5,"INCLINATION":42.9985,"RA_OF_ASC_NODE":56.5845,"ARG_OF_PERICENTER":260.8276,"MEAN_ANOMALY":99.2527,"EPHEMERIS_TYPE":0,"CLASSIFICATION_TYPE":"U","NORAD_CAT_ID":63411,"ELEMENT_SET_NO":999,"REV_AT_EPOCH":5432,"BSTAR":0.0010508,"MEAN_MOTION_DOT":0.00028778,"MEAN_MOTION_DDOT":0},{"OBJECT_NAME":"STARLINK-33645","OBJECT_ID":"2025-065P","EPOCH":"2026-03-20T05:28:25.051008","MEAN_MOTION":15.27585103,"ECCENTRICITY":8.72e-5,"INCLINATION":43.0018,"RA_OF_ASC_NODE":50.7747,"ARG_OF_PERICENTER":260.8923,"MEAN_ANOMALY":99.183,"EPHEMERIS_TYPE":0,"CLASSIFICATION_TYPE":"U","NORAD_CAT_ID":63412,"ELEMENT_SET_NO":999,"REV_AT_EPOCH":5441,"BSTAR":0.0003102,"MEAN_MOTION_DOT":8.285e-5,"MEAN_MOTION_DDOT":0},{"OBJECT_NAME":"STARLINK-33670","OBJECT_ID":"2025-065Q","EPOCH":"2026-03-19T15:27:16.041024","MEAN_MOTION":15.2758646,"ECCENTRICITY":0.0001547,"INCLINATION":43.0073,"RA_OF_ASC_NODE":50.7038,"ARG_OF_PERICENTER":255.9277,"MEAN_ANOMALY":104.1403,"EPHEMERIS_TYPE":0,"CLASSIFICATION_TYPE":"U","NORAD_CAT_ID":63413,"ELEMENT_SET_NO":999,"REV_AT_EPOCH":5436,"BSTAR":0.0009057,"MEAN_MOTION_DOT":0.00024749,"MEAN_MOTION_DDOT":0},{"OBJECT_NAME":"STARLINK-33644","OBJECT_ID":"2025-065R","EPOCH":"2026-03-20T05:07:07.755744","MEAN_MOTION":15.27599577,"ECCENTRICITY":2.95e-5,"INCLINATION":43.003,"RA_OF_ASC_NODE":48.0858,"ARG_OF_PERICENTER":30.0738,"MEAN_ANOMALY":330.0131,"EPHEMERIS_TYPE":0,"CLASSIFICATION_TYPE":"U","NORAD_CAT_ID":63414,"ELEMENT_SET_NO":999,"REV_AT_EPOCH":5444,"BSTAR":0.00055431,"MEAN_MOTION_DOT":0.00015032,"MEAN_MOTION_DDOT":0},{"OBJECT_NAME":"STARLINK-33664","OBJECT_ID":"2025-065S","EPOCH":"2026-03-19T07:47:35.630880","MEAN_MOTION":15.27589799,"ECCENTRICITY":0.00015124,"INCLINATION":43.0043,"RA_OF_ASC_NODE":52.6047,"ARG_OF_PERICENTER":264.5136,"MEAN_ANOMALY":95.5543,"EPHEMERIS_TYPE":0,"CLASSIFICATION_TYPE":"U","NORAD_CAT_ID":63415,"ELEMENT_SET_NO":999,"REV_AT_EPOCH":5431,"BSTAR":0.00051317152,"MEAN_MOTION_DOT":0.0001389,"MEAN_MOTION_DDOT":0},{"OBJECT_NAME":"STARLINK-33649","OBJECT_ID":"2025-065T","EPOCH":"2026-03-19T23:10:39.967104","MEAN_MOTION":15.27602705,"ECCENTRICITY":0.0001389,"INCLINATION":43.0035,"RA_OF_ASC_NODE":48.801,"ARG_OF_PERICENTER":266.6975,"MEAN_ANOMALY":93.3718,"EPHEMERIS_TYPE":0,"CLASSIFICATION_TYPE":"U","NORAD_CAT_ID":63416,"ELEMENT_SET_NO":999,"REV_AT_EPOCH":5441,"BSTAR":0.00076539,"MEAN_MOTION_DOT":0.00020874,"MEAN_MOTION_DDOT":0},{"OBJECT_NAME":"STARLINK-33535","OBJECT_ID":"2025-065U","EPOCH":"2026-03-19T23:27:17.612352","MEAN_MOTION":15.27603319,"ECCENTRICITY":0.0001244,"INCLINATION":43.0027,"RA_OF_ASC_NODE":48.8753,"ARG_OF_PERICENTER":273.9931,"MEAN_ANOMALY":86.0778,"EPHEMERIS_TYPE":0,"CLASSIFICATION_TYPE":"U","NORAD_CAT_ID":63417,"ELEMENT_SET_NO":999,"REV_AT_EPOCH":5441,"BSTAR":0.00076027,"MEAN_MOTION_DOT":0.00020732,"MEAN_MOTION_DDOT":0},{"OBJECT_NAME":"STARLINK-33703","OBJECT_ID":"2025-065V","EPOCH":"2026-03-20T04:39:21.951648","MEAN_MOTION":15.27579003,"ECCENTRICITY":7.18e-5,"INCLINATION":43.0012,"RA_OF_ASC_NODE":47.9429,"ARG_OF_PERICENTER":235.0595,"MEAN_ANOMALY":125.0189,"EPHEMERIS_TYPE":0,"CLASSIFICATION_TYPE":"U","NORAD_CAT_ID":63418,"ELEMENT_SET_NO":999,"REV_AT_EPOCH":5444,"BSTAR":-5.3625e-5,"MEAN_MOTION_DOT":-1.737e-5,"MEAN_MOTION_DDOT":0},{"OBJECT_NAME":"STARLINK-33709","OBJECT_ID":"2025-065W","EPOCH":"2026-03-20T04:44:55.328640","MEAN_MOTION":15.27587109,"ECCENTRICITY":0.0002397,"INCLINATION":42.9973,"RA_OF_ASC_NODE":47.9699,"ARG_OF_PERICENTER":271.5867,"MEAN_ANOMALY":88.471,"EPHEMERIS_TYPE":0,"CLASSIFICATION_TYPE":"U","NORAD_CAT_ID":63419,"ELEMENT_SET_NO":999,"REV_AT_EPOCH":5444,"BSTAR":0.0001891,"MEAN_MOTION_DOT":4.946e-5,"MEAN_MOTION_DDOT":0},{"OBJECT_NAME":"STARLINK-33698","OBJECT_ID":"2025-065X","EPOCH":"2026-03-19T15:08:45.370752","MEAN_MOTION":15.27586002,"ECCENTRICITY":0.00011,"INCLINATION":43.003,"RA_OF_ASC_NODE":50.5804,"ARG_OF_PERICENTER":271.2658,"MEAN_ANOMALY":88.8068,"EPHEMERIS_TYPE":0,"CLASSIFICATION_TYPE":"U","NORAD_CAT_ID":63420,"ELEMENT_SET_NO":999,"REV_AT_EPOCH":5436,"BSTAR":0.00055567587,"MEAN_MOTION_DOT":0.00015063,"MEAN_MOTION_DDOT":0},{"OBJECT_NAME":"STARLINK-33606","OBJECT_ID":"2025-065Y","EPOCH":"2026-03-19T15:34:39.013824","MEAN_MOTION":15.27582039,"ECCENTRICITY":0.00024349,"INCLINATION":43.0031,"RA_OF_ASC_NODE":50.7192,"ARG_OF_PERICENTER":262.4508,"MEAN_ANOMALY":97.6067,"EPHEMERIS_TYPE":0,"CLASSIFICATION_TYPE":"U","NORAD_CAT_ID":63421,"ELEMENT_SET_NO":999,"REV_AT_EPOCH":5436,"BSTAR":0.00038567132,"MEAN_MOTION_DOT":0.00010366,"MEAN_MOTION_DDOT":0},{"OBJECT_NAME":"STARLINK-33686","OBJECT_ID":"2025-065Z","EPOCH":"2026-03-20T04:22:43.070880","MEAN_MOTION":15.27588021,"ECCENTRICITY":0.0001089,"INCLINATION":43.0009,"RA_OF_ASC_NODE":47.8439,"ARG_OF_PERICENTER":267.825,"MEAN_ANOMALY":92.2477,"EPHEMERIS_TYPE":0,"CLASSIFICATION_TYPE":"U","NORAD_CAT_ID":63422,"ELEMENT_SET_NO":999,"REV_AT_EPOCH":5444,"BSTAR":0.0006183,"MEAN_MOTION_DOT":0.00016795,"MEAN_MOTION_DDOT":0},{"OBJECT_NAME":"STARLINK-33675","OBJECT_ID":"2025-065AA","EPOCH":"2026-03-19T22:53:59.405856","MEAN_MOTION":15.27591631,"ECCENTRICITY":9.8e-6,"INCLINATION":42.9982,"RA_OF_ASC_NODE":48.7118,"ARG_OF_PERICENTER":234.9788,"MEAN_ANOMALY":125.1054,"EPHEMERIS_TYPE":0,"CLASSIFICATION_TYPE":"U","NORAD_CAT_ID":63423,"ELEMENT_SET_NO":999,"REV_AT_EPOCH":5441,"BSTAR":0.00071565,"MEAN_MOTION_DOT":0.0001949,"MEAN_MOTION_DDOT":0},{"OBJECT_NAME":"STARLINK-33655","OBJECT_ID":"2025-065AB","EPOCH":"2026-03-20T04:56:01.172832","MEAN_MOTION":15.27591833,"ECCENTRICITY":0.0001008,"INCLINATION":42.9996,"RA_OF_ASC_NODE":48.0134,"ARG_OF_PERICENTER":275.6827,"MEAN_ANOMALY":84.391,"EPHEMERIS_TYPE":0,"CLASSIFICATION_TYPE":"U","NORAD_CAT_ID":63424,"ELEMENT_SET_NO":999,"REV_AT_EPOCH":5444,"BSTAR":0.00050912,"MEAN_MOTION_DOT":0.00013779,"MEAN_MOTION_DDOT":0},{"OBJECT_NAME":"STARLINK-33608","OBJECT_ID":"2025-065AC","EPOCH":"2026-03-19T23:36:32.501664","MEAN_MOTION":15.27602931,"ECCENTRICITY":0.000104,"INCLINATION":43.0004,"RA_OF_ASC_NODE":48.9197,"ARG_OF_PERICENTER":230.5632,"MEAN_ANOMALY":129.5127,"EPHEMERIS_TYPE":0,"CLASSIFICATION_TYPE":"U","NORAD_CAT_ID":63425,"ELEMENT_SET_NO":999,"REV_AT_EPOCH":5441,"BSTAR":0.00057032,"MEAN_MOTION_DOT":0.00015476,"MEAN_MOTION_DDOT":0}]
