STARLINK-33693          
1 63409U 25065L   26078.91702883  .00037485  00000+0  13622-2 0  9993
2 63409  43.0008  49.3472 0001461 246.5380 113.5318 15.27641664 54405
STARLINK-33677          
1 63410U 25065M   26078.97472744  .00020028  00000+0  73498-3 0  9994
2 63410  43.0013  48.9177 0001005 222.3474 137.7301 15.27595777 54414
STARLINK-33647          
1 63411U 25065N   26078.95720461  .00028778  00000+0  10508-2 0  9997
2 63411  42.9985  56.5845 0000430 260.8276  99.2527 15.27592323 54322
STARLINK-33645          
1 63412U 25065P   26079.22806772  .00008285  00000+0  31020-3 0  9993
2 63412  43.0018  50.7747 0000872 260.8923  99.1830 15.27585103 54412
STARLINK-33670          
1 63413U 25065Q   26078.64393566  .00024749  00000+0  90570-3 0  9999
2 63413  43.0073  50.7038 0001547 255.9277 104.1403 15.27586460 54368
STARLINK-33644          
1 63414U 25065R   26079.21328421  .00015032  00000+0  55431-3 0  9994
2 63414  43.0030  48.0858 0000295  30.0738 330.0131 15.27599577 54445
STARLINK-33664          
1 63415U 25065S   26078.32471795  .00013890  00000+0  51317-3 0  9998
2 63415  43.0043  52.6047 0001512 264.5136  95.5543 15.27589799 54311
STARLINK-33649          
1 63416U 25065T   26078.96574036  .00020874  00000+0  76539-3 0  9994
2 63416  43.0035  48.8010 0001389 266.6975  93.3718 15.27602705 54410
STARLINK-33535          
1 63417U 25065U   26078.97728718  .00020732  00000+0  76027-3 0  9999
2 63417  43.0027  48.8753 0001244 273.9931  86.0778 15.27603319 54416
STARLINK-33703          
1 63418U 25065V   26079.19400407 -.00001737  00000+0 -53625-4 0  9993
2 63418  43.0012  47.9429 0000718 235.0595 125.0189 15.27579003 54446
STARLINK-33709          
1 63419U 25065W   26079.19786260  .00004946  00000+0  18910-3 0  9998
2 63419  42.9973  47.9699 0002397 271.5867  88.4710 15.27587109 54440
STARLINK-33698          
1 63420U 25065X   26078.63108068  .00015063  00000+0  55568-3 0  9994
2 63420  43.0030  50.5804 0001100 271.2658  88.8068 15.27586002 54364
STARLINK-33606          
1 63421U 25065Y   26078.64906266  .00010366  00000+0  38567-3 0  9993
2 63421  43.0031  50.7192 0002434 262.4508  97.6067 15.27582039 54368
STARLINK-33686          
1 63422U 25065Z   26079.18244295  .00016795  00000+0  61830-3 0  9992
2 63422  43.0009  47.8439 0001089 267.8250  92.2477 15.27588021 54445
STARLINK-33675          
1 63423U 25065AA  26078.95415979  .00019490  00000+0  71565-3 0  9997
2 63423  42.9982  48.7118 0000098 234.9788 125.1054 15.27591631 54413
STARLINK-33655          
1 63424U 25065AB  26079.20556913  .00013779  00000+0  50912-3 0  9998
2 63424  42.9996  48.0134 0001008 275.6827  84.3910 15.27591833 54442
STARLINK-33608          
1 63425U 25065AC  26078.98370951  .00015476  00000+0  57032-3 0  9995
2 63425  43.0004  48.9197 0001040 230.5632 129.5127 15.27602931 54414
